62474,STARLINK-11502 [DTC],2025-12-13T19:12:06.246720,2025-12-14T13:04:14.456627,43.0003,20.636,0.0002515,324.425,35.645,15.7094493,15747-2,5589,1 62474U 24254N   25347.80007230  .00207651  00000+0  15747-2 0  9997,2 62474  43.0003  20.6360 0002515 324.4250  35.6450 15.70944930 55897
62475,STARLINK-32657,2025-12-13T19:53:51.107136,2025-12-14T13:04:14.456627,43.0023,144.5696,0.0001757,281.499,78.5664,15.27615891,13438-2,5433,1 62475U 24254P   25347.82906374  .00036943  00000+0  13438-2 0  9996,2 62475  43.0023 144.5696 0001757 281.4990  78.5664 15.27615891 54332
62476,STARLINK-32734,2025-12-13T20:27:51.132960,2025-12-14T13:04:14.456627,42.9993,141.2761,0.0001897,267.932,92.1314,15.2760688,92679-3,5452,1 62476U 24254Q   25347.85267515  .00025350  00000+0  92679-3 0  9992,2 62476  42.9993 141.2761 0001897 267.9320  92.1314 15.27606880 54528
62477,STARLINK-32733,2025-12-13T19:30:29.032128,2025-12-14T13:04:14.456627,43.0019,140.9777,0.0001788,262.4658,97.599,15.27610747,13071-2,5452,1 62477U 24254R   25347.81283602  .00035917  00000+0  13071-2 0  9992,2 62477  43.0019 140.9777 0001788 262.4658  97.5990 15.27610747 54522
62478,STARLINK-32707,2025-12-13T10:48:07.370784,2025-12-14T13:04:14.456627,42.9997,143.4085,0.0003385,283.8469,76.2006,15.27611286,19523-2,5446,1 62478U 24254S   25347.45008531  .00053911  00000+0  19523-2 0  9991,2 62478  42.9997 143.4085 0003385 283.8469  76.2006 15.27611286 54462
62479,STARLINK-32705,2025-12-13T19:00:26.728128,2025-12-14T13:04:14.456627,42.9974,133.9002,0.0001697,274.0591,86.0066,15.27589318,87530-3,5444,1 62479U 24254T   25347.79197602  .00023909  00000+0  87530-3 0  9995,2 62479  42.9974 133.9002 0001697 274.0591  86.0066 15.27589318 54446
62480,STARLINK-32743,2025-12-13T17:45:14.006880,2025-12-14T13:04:14.456627,42.9999,141.2878,0.0001563,263.3433,96.7241,15.27594998,88441-3,5451,1 62480U 24254U   25347.73974545  .00024166  00000+0  88441-3 0  9998,2 62480  42.9999 141.2878 0001563 263.3433  96.7241 15.27594998 54517
62481,STARLINK-32753,2025-12-13T19:41:35.004192,2025-12-14T13:04:14.456627,43.0022,141.0353,0.0001541,281.6113,78.4565,15.27623553,88370-3,5452,1 62481U 24254V   25347.82054403  .00024167  00000+0  88370-3 0  9993,2 62481  43.0022 141.0353 0001541 281.6113  78.4565 15.27623553 54524
62482,STARLINK-32699,2025-12-13T11:53:49.466688,2025-12-14T13:04:14.456627,42.9997,146.3629,0.0001111,282.3883,77.6844,15.27608034,13251-2,5428,1 62482U 24254W   25347.49571142  .00036414  00000+0  13251-2 0  9994,2 62482  42.9997 146.3629 0001111 282.3883  77.6844 15.27608034 54284
62487,STARLINK-32713,2025-12-13T14:15:45.408384,2025-12-14T13:04:14.456627,43.002,55.2612,0.0001265,297.134,62.9383,15.27629082,99897-3,5348,1 62487U 25003A   25347.59427556  .00027371  00000+0  99897-3 0  9995,2 62487  43.0020  55.2612 0001265 297.1340  62.9383 15.27629082 53482
62488,STARLINK-32732,2025-12-13T21:18:26.719200,2025-12-14T13:04:14.456627,43.002,53.1607,5.59e-05,351.8535,8.2308,15.27563342,18614-2,5343,1 62488U 25003B   25347.88780925  .00051290  00000+0  18614-2 0  9994,2 62488  43.0020  53.1607 0000559 351.8535   8.2308 15.27563342 53434
62489,STARLINK-32328,2025-12-13T11:29:40.368480,2025-12-14T13:04:14.456627,42.9998,56.1102,0.0001357,277.5098,82.5599,15.2755936,61614-3,5348,1 62489U 25003C   25347.47893945  .00016721  00000+0  61614-3 0  9996,2 62489  42.9998  56.1102 0001357 277.5098  82.5599 15.27559360 53482
62490,STARLINK-32332,2025-12-13T11:13:00.237504,2025-12-14T13:04:14.456627,43.0001,56.0245,0.0001483,287.8142,72.2548,15.27634579,17857-2,5346,1 62490U 25003D   25347.46736386  .00049287  00000+0  17857-2 0  9994,2 62490  43.0001  56.0245 0001483 287.8142  72.2548 15.27634579 53466
62491,STARLINK-32717,2025-12-13T21:44:20.656896,2025-12-14T13:04:14.456627,43.0018,53.2969,0.0001429,289.1591,70.9106,15.27620364,99133-3,5355,1 62491U 25003E   25347.90579464  .00027151  00000+0  99133-3 0  9990,2 62491  43.0018  53.2969 0001429 289.1591  70.9106 15.27620364 53552
62492,STARLINK-32757,2025-12-13T14:30:33.066432,2025-12-14T13:04:14.456627,43.0002,55.3312,0.0003093,249.4527,110.5993,15.27619122,99299-3,5338,1 62492U 25003F   25347.60454938  .00027199  00000+0  99299-3 0  9991,2 62492  43.0002  55.3312 0003093 249.4527 110.5993 15.27619122 53384
62493,STARLINK-32731,2025-12-13T21:05:42.127584,2025-12-14T13:04:14.456627,42.9928,53.9526,2.62e-05,243.8651,116.2174,15.2758189,17923-3,5354,1 62493U 25003G   25347.87895981  .00004674  00000+0  17923-3 0  9995,2 62493  42.9928  53.9526 0000262 243.8651 116.2174 15.27581890 53544
62494,STARLINK-32694,2025-12-13T21:29:32.152128,2025-12-14T13:04:14.456627,43.0014,53.2192,0.0002435,276.5244,83.533,15.27615504,10340-2,5355,1 62494U 25003H   25347.89551102  .00028333  00000+0  10340-2 0  9995,2 62494  43.0014  53.2192 0002435 276.5244  83.5330 15.27615504 53551
62495,STARLINK-32708,2025-12-13T11:16:42.130848,2025-12-14T13:04:14.456627,43.0005,56.0419,0.0001506,280.3859,79.6823,15.27629642,17336-2,5336,1 62495U 25003J   25347.46993207  .00047825  00000+0  17336-2 0  9994,2 62495  43.0005  56.0419 0001506 280.3859  79.6823 15.27629642 53368
62496,STARLINK-32718,2025-12-13T21:23:59.341056,2025-12-14T13:04:14.456627,43.0001,53.1927,0.0001896,270.4691,89.5944,15.27607856,77076-3,5343,1 62496U 25003K   25347.89165904  .00021026  00000+0  77076-3 0  9990,2 62496  43.0001  53.1927 0001896 270.4691  89.5944 15.27607856 53438
62497,STARLINK-32729,2025-12-13T21:35:05.359776,2025-12-14T13:04:14.456627,43.0055,53.2423,0.0002137,275.7284,84.3324,15.27603168,56330-3,5355,1 62497U 25003L   25347.89936759  .00015282  00000+0  56330-3 0  9992,2 62497  43.0055  53.2423 0002137 275.7284  84.3324 15.27603168 53555
62498,STARLINK-32739,2025-12-13T14:06:30.394656,2025-12-14T13:04:14.456627,43.0018,55.203,0.0001448,227.2185,132.8545,15.27623859,96901-3,5345,1 62498U 25003M   25347.58785179  .00026535  00000+0  96901-3 0  9998,2 62498  43.0018  55.2030 0001448 227.2185 132.8545 15.27623859 53459
62499,STARLINK-32714,2025-12-13T21:03:50.046048,2025-12-14T13:04:14.456627,43.0007,53.9444,0.0004008,278.8954,81.1444,15.27624429,10512-2,5354,1 62499U 25003N   25347.87766257  .00028821  00000+0  10512-2 0  9990,2 62499  43.0007  53.9444 0004008 278.8954  81.1444 15.27624429 53541
62500,STARLINK-32685,2025-12-13T11:27:48.607488,2025-12-14T13:04:14.456627,42.9997,56.1016,8.72e-05,269.6761,90.399,15.27637227,16904-2,5343,1 62500U 25003P   25347.47764592  .00046629  00000+0  16904-2 0  9996,2 62500  42.9997  56.1016 0000872 269.6761  90.3990 15.27637227 53435
62501,STARLINK-32691,2025-12-13T06:13:51.744288,2025-12-14T13:04:14.456627,43.0017,57.0365,0.0001161,222.8128,137.2634,15.27582076,15043-2,5344,1 62501U 25003Q   25347.25962667  .00041368  00000+0  15043-2 0  9994,2 62501  43.0017  57.0365 0001161 222.8128 137.2634 15.27582076 53446
62502,STARLINK-32788,2025-12-13T06:08:19.965696,2025-12-14T13:04:14.456627,43.0012,57.0108,8.13e-05,220.6565,139.4226,15.27601329,11302-2,5333,1 62502U 25003R   25347.25578664  .00030990  00000+0  11302-2 0  9998,2 62502  43.0012  57.0108 0000813 220.6565 139.4226 15.27601329 53333
62503,STARLINK-32768,2025-12-13T21:25:49.977984,2025-12-14T13:04:14.456627,42.9993,53.1959,0.0002514,276.5326,83.5239,15.27616193,15406-2,5343,1 62503U 25003S   25347.89293956  .00042424  00000+0  15406-2 0  9991,2 62503  42.9993  53.1959 0002514 276.5326  83.5239 15.27616193 53435
62504,STARLINK-32792,2025-12-13T21:12:53.012160,2025-12-14T13:04:14.456627,42.9977,53.1263,1.36e-05,133.0343,227.052,15.27588272,15884-2,5343,1 62504U 25003T   25347.88394690  .00043717  00000+0  15884-2 0  9994,2 62504  42.9977  53.1263 0000136 133.0343 227.0520 15.27588272 53434
62505,STARLINK-32725,2025-12-13T13:23:56.964480,2025-12-14T13:04:14.456627,42.9998,54.9705,0.0001286,256.1155,103.9554,15.2762073,12358-2,5338,1 62505U 25003U   25347.55829820  .00033943  00000+0  12358-2 0  9990,2 62505  42.9998  54.9705 0001286 256.1155 103.9554 15.27620730 53382
62506,STARLINK-32681,2025-12-13T20:29:59.550144,2025-12-14T13:04:14.456627,43.0043,35.1699,0.0001568,275.6563,84.411,15.27631671,13459-2,5375,1 62506U 25003V   25347.85416146  .00037019  00000+0  13459-2 0  9998,2 62506  43.0043  35.1699 0001568 275.6563  84.4110 15.27631671 53759
62507,STARLINK-32679,2025-12-13T21:09:23.793696,2025-12-14T13:04:14.456627,42.9994,53.9347,1.47e-05,266.2113,93.8722,15.27558651,14302-2,5354,1 62507U 25003W   25347.88152539  .00039277  00000+0  14302-2 0  9991,2 62507  42.9994  53.9347 0000147 266.2113  93.8722 15.27558651 53546
62508,STARLINK-32749,2025-12-13T21:40:38.320320,2025-12-14T13:04:14.456627,43.0049,53.2702,0.0002968,273.4011,86.6501,15.27622698,12203-2,5343,1 62508U 25003X   25347.90322130  .00033516  00000+0  12203-2 0  9999,2 62508  43.0049  53.2702 0002968 273.4011  86.6501 15.27622698 53434
62509,STARLINK-32744,2025-12-13T05:16:44.283936,2025-12-14T13:04:14.456627,43.0009,57.6101,9.64e-05,243.7754,116.2999,15.27619755,11636-2,5332,1 62509U 25003Y   25347.21995699  .00031935  00000+0  11636-2 0  9992,2 62509  43.0009  57.6101 0000964 243.7754 116.2999 15.27619755 53329
62510,STARLINK-32701,2025-12-13T14:10:12.273312,2025-12-14T13:04:14.456627,43.0032,55.2243,0.0001989,244.8051,115.2595,15.27617645,83202-3,5338,1 62510U 25003Z   25347.59041983  .00022731  00000+0  83202-3 0  9996,2 62510  43.0032  55.2243 0001989 244.8051 115.2595 15.27617645 53381
62511,STARLINK-11452 [DTC],2025-12-13T08:59:04.186464,2025-12-14T13:04:14.456627,43.0003,230.9882,0.0001753,259.7867,100.2804,15.70950289,23804-2,5455,1 62511U 25004A   25347.37435401  .00318463  00000+0  23804-2 0  9997,2 62511  43.0003 230.9882 0001753 259.7867 100.2804 15.70950289 54559
62512,STARLINK-11443 [DTC],2025-12-13T23:28:59.550528,2025-12-14T13:04:14.456627,43.001,227.7931,0.000334,293.2278,66.8237,15.70856427,18086-2,5372,1 62512U 25004B   25347.97846702  .00238594  00000+0  18086-2 0  9996,2 62512  43.0010 227.7931 0003340 293.2278  66.8237 15.70856427 53724
